start=new Date('2022-09-04T00:00:00.000Z').valueOf();
sats=[{"REF_FRAME":"TEME","TIME_SYSTEM":"UTC","MEAN_ANOMALY":"296.0480","MEAN_ELEMENT_THEORY":"SGP4","BSTAR":"0.00011174000000","FILE":"3556957","COUNTRY_CODE":"US","GP_ID":"211667591","TLE_LINE2":"2 46337  53.0569 356.2490 0001466  64.0660 296.0480 15.06405506111218","ECCENTRICITY":"0.00014660","NORAD_CAT_ID":"46337","EPHEMERIS_TYPE":"0","REV_AT_EPOCH":"11121","ELEMENT_SET_NO":"999","INCLINATION":"53.0569","ARG_OF_PERICENTER":"64.0660","SEMIMAJOR_AXIS":"6925.332","MEAN_MOTION_DOT":"0.00001383","EPOCH":"2022-09-03T16:30:01.983744","CENTER_NAME":"EARTH","OBJECT_TYPE":"PAYLOAD","SITE":"AFETR","DECAY_DATE":null,"MEAN_MOTION_DDOT":"0.0000000000000","RCS_SIZE":"LARGE","TLE_LINE1":"1 46337U 20062N   22246.68752296  .00001383  00000-0  11174-3 0  9996","PERIOD":"95.592","PERIAPSIS":"546.181","RA_OF_ASC_NODE":"356.2490","MEAN_MOTION":"15.06405506","LAUNCH_DATE":"2020-09-03","APOAPSIS":"548.212","CLASSIFICATION_TYPE":"U","OBJECT_ID":"2020-062N","OBJECT_NAME":"STARLINK-1750"},{"REV_AT_EPOCH":"11092","ELEMENT_SET_NO":"999","INCLINATION":"53.0559","NORAD_CAT_ID":"46338","EPHEMERIS_TYPE":"0","COUNTRY_CODE":"US","GP_ID":"211667841","TLE_LINE2":"2 46338  53.0559  16.3281 0001200  81.3830 278.7295 15.06398875110925","ECCENTRICITY":"0.00012000","REF_FRAME":"TEME","TIME_SYSTEM":"UTC","MEAN_ANOMALY":"278.7295","MEAN_ELEMENT_THEORY":"SGP4","FILE":"3556957","BSTAR":"0.00012266000000","RA_OF_ASC_NODE":"16.3281","PERIAPSIS":"546.386","MEAN_MOTION":"15.06398875","LAUNCH_DATE":"2020-09-03","APOAPSIS":"548.048","CLASSIFICATION_TYPE":"U","OBJECT_ID":"2020-062P","OBJECT_NAME":"STARLINK-1752","PERIOD":"95.592","OBJECT_TYPE":"PAYLOAD","DECAY_DATE":null,"SITE":"AFETR","MEAN_MOTION_DDOT":"0.0000000000000","TLE_LINE1":"1 46338U 20062P   22246.67094384  .00001546  00000-0  12266-3 0  9997","RCS_SIZE":"LARGE","ARG_OF_PERICENTER":"81.3830","SEMIMAJOR_AXIS":"6925.352","MEAN_MOTION_DOT":"0.00001546","EPOCH":"2022-09-03T16:06:09.547776","CENTER_NAME":"EARTH"},{"ELEMENT_SET_NO":"999","INCLINATION":"53.0570","REV_AT_EPOCH":"11093","EPHEMERIS_TYPE":"0","NORAD_CAT_ID":"46340","ECCENTRICITY":"0.00012420","TLE_LINE2":"2 46340  53.0570  15.8497 0001242  87.3109 272.8022 15.06409671110936","COUNTRY_CODE":"US","GP_ID":"211669091","FILE":"3556957","BSTAR":"0.00010660000000","TIME_SYSTEM":"UTC","MEAN_ELEMENT_THEORY":"SGP4","MEAN_ANOMALY":"272.8022","REF_FRAME":"TEME","CLASSIFICATION_TYPE":"U","APOAPSIS":"548.044","OBJECT_NAME":"STARLINK-1759","OBJECT_ID":"2020-062R","MEAN_MOTION":"15.06409671","LAUNCH_DATE":"2020-09-03","RA_OF_ASC_NODE":"15.8497","PERIAPSIS":"546.324","PERIOD":"95.592","RCS_SIZE":"LARGE","TLE_LINE1":"1 46340U 20062R   22246.77782503  .00001307  00000-0  10660-3 0  9999","MEAN_MOTION_DDOT":"0.0000000000000","OBJECT_TYPE":"PAYLOAD","SITE":"AFETR","DECAY_DATE":null,"CENTER_NAME":"EARTH","EPOCH":"2022-09-03T18:40:04.082592","SEMIMAJOR_AXIS":"6925.319","MEAN_MOTION_DOT":"0.00001307","ARG_OF_PERICENTER":"87.3109"},{"ARG_OF_PERICENTER":"87.1300","SEMIMAJOR_AXIS":"6925.342","MEAN_MOTION_DOT":"0.00001849","EPOCH":"2022-09-03T17:12:29.813472","CENTER_NAME":"EARTH","OBJECT_TYPE":"PAYLOAD","SITE":"AFETR","DECAY_DATE":null,"MEAN_MOTION_DDOT":"0.0000000000000","RCS_SIZE":"LARGE","TLE_LINE1":"1 46341U 20062S   22246.71701173  .00001849  00000-0  14301-3 0  9995","PERIOD":"95.592","PERIAPSIS":"546.327","RA_OF_ASC_NODE":"356.1195","MEAN_MOTION":"15.06402251","LAUNCH_DATE":"2020-09-03","APOAPSIS":"548.086","CLASSIFICATION_TYPE":"U","OBJECT_NAME":"STARLINK-1760","OBJECT_ID":"2020-062S","REF_FRAME":"TEME","TIME_SYSTEM":"UTC","MEAN_ANOMALY":"272.9834","MEAN_ELEMENT_THEORY":"SGP4","BSTAR":"0.00014301000000","FILE":"3556957","COUNTRY_CODE":"US","GP_ID":"211669334","TLE_LINE2":"2 46341  53.0557 356.1195 0001270  87.1300 272.9834 15.06402251111222","ECCENTRICITY":"0.00012700","NORAD_CAT_ID":"46341","EPHEMERIS_TYPE":"0","REV_AT_EPOCH":"11122","INCLINATION":"53.0557","ELEMENT_SET_NO":"999"},{"APOAPSIS":"548.033","CLASSIFICATION_TYPE":"U","OBJECT_ID":"2020-062T","OBJECT_NAME":"STARLINK-1762","MEAN_MOTION":"15.06402612","LAUNCH_DATE":"2020-09-03","PERIAPSIS":"546.378","RA_OF_ASC_NODE":"16.4955","PERIOD":"95.592","RCS_SIZE":"LARGE","TLE_LINE1":"1 46342U 20062T   22246.63039756  .00001262  00000-0  10360-3 0  9998","MEAN_MOTION_DDOT":"0.0000000000000","OBJECT_TYPE":"PAYLOAD","DECAY_DATE":null,"SITE":"AFETR","CENTER_NAME":"EARTH","EPOCH":"2022-09-03T15:07:46.349184","SEMIMAJOR_AXIS":"6925.341","MEAN_MOTION_DOT":"0.00001262","ARG_OF_PERICENTER":"89.0681","ELEMENT_SET_NO":"999","INCLINATION":"53.0579","REV_AT_EPOCH":"11092","EPHEMERIS_TYPE":"0","NORAD_CAT_ID":"46342","ECCENTRICITY":"0.00011950","TLE_LINE2":"2 46342  53.0579  16.4955 0001195  89.0681 271.0445 15.06402612110921","COUNTRY_CODE":"US","GP_ID":"211668091","BSTAR":"0.00010360000000","FILE":"3556957","TIME_SYSTEM":"UTC","MEAN_ANOMALY":"271.0445","MEAN_ELEMENT_THEORY":"SGP4","REF_FRAME":"TEME"},{"SEMIMAJOR_AXIS":"6925.356","MEAN_MOTION_DOT":"0.00001469","ARG_OF_PERICENTER":"84.1059","CENTER_NAME":"EARTH","EPOCH":"2022-09-03T16:35:21.465888","MEAN_MOTION_DDOT":"0.0000000000000","OBJECT_TYPE":"PAYLOAD","DECAY_DATE":null,"SITE":"AFETR","TLE_LINE1":"1 46343U 20062U   22246.69122067  .00001469  00000-0  11748-3 0  9993","RCS_SIZE":"LARGE","PERIOD":"95.592","PERIAPSIS":"546.328","RA_OF_ASC_NODE":"356.2300","CLASSIFICATION_TYPE":"U","APOAPSIS":"548.114","OBJECT_ID":"2020-062U","OBJECT_NAME":"STARLINK-1764","MEAN_MOTION":"15.06397536","LAUNCH_DATE":"2020-09-03","REF_FRAME":"TEME","FILE":"3556957","BSTAR":"0.00011748000000","TIME_SYSTEM":"UTC","MEAN_ELEMENT_THEORY":"SGP4","MEAN_ANOMALY":"276.0077","TLE_LINE2":"2 46343  53.0555 356.2300 0001290  84.1059 276.0077 15.06397536111213","COUNTRY_CODE":"US","GP_ID":"211668341","ECCENTRICITY":"0.00012900","NORAD_CAT_ID":"46343","EPHEMERIS_TYPE":"0","REV_AT_EPOCH":"11121","ELEMENT_SET_NO":"999","INCLINATION":"53.0555"},{"OBJECT_NAME":"STARLINK-1765","OBJECT_ID":"2020-062V","APOAPSIS":"548.121","CLASSIFICATION_TYPE":"U","LAUNCH_DATE":"2020-09-03","MEAN_MOTION":"15.06396878","PERIAPSIS":"546.326","RA_OF_ASC_NODE":"356.1517","PERIOD":"95.592","TLE_LINE1":"1 46344U 20062V   22246.70965062  .00001385  00000-0  11186-3 0  9999","RCS_SIZE":"LARGE","MEAN_MOTION_DDOT":"0.0000000000000","DECAY_DATE":null,"SITE":"AFETR","OBJECT_TYPE":"PAYLOAD","CENTER_NAME":"EARTH","EPOCH":"2022-09-03T17:01:53.813568","MEAN_MOTION_DOT":"0.00001385","SEMIMAJOR_AXIS":"6925.358","ARG_OF_PERICENTER":"89.3319","ELEMENT_SET_NO":"999","INCLINATION":"53.0559","REV_AT_EPOCH":"11121","EPHEMERIS_TYPE":"0","NORAD_CAT_ID":"46344","ECCENTRICITY":"0.00012960","TLE_LINE2":"2 46344  53.0559 356.1517 0001296  89.3319 270.7819 15.06396878111212","GP_ID":"211668592","COUNTRY_CODE":"US","FILE":"3556957","BSTAR":"0.00011186000000","MEAN_ELEMENT_THEORY":"SGP4","MEAN_ANOMALY":"270.7819","TIME_SYSTEM":"UTC","REF_FRAME":"TEME"},{"ECCENTRICITY":"0.00013890","TLE_LINE2":"2 46345  53.0568  16.4189 0001389  91.4066 268.7082 15.06397467110921","GP_ID":"211668835","COUNTRY_CODE":"US","FILE":"3556957","BSTAR":"-0.00001704500000","MEAN_ANOMALY":"268.7082","MEAN_ELEMENT_THEORY":"SGP4","TIME_SYSTEM":"UTC","REF_FRAME":"TEME","ELEMENT_SET_NO":"999","INCLINATION":"53.0568","REV_AT_EPOCH":"11092","EPHEMERIS_TYPE":"0","NORAD_CAT_ID":"46345","TLE_LINE1":"1 46345U 20062W   22246.64419779 -.00000535  00000-0 -17045-4 0  9991","RCS_SIZE":"LARGE","MEAN_MOTION_DDOT":"0.0000000000000","DECAY_DATE":null,"SITE":"AFETR","OBJECT_TYPE":"PAYLOAD","CENTER_NAME":"EARTH","EPOCH":"2022-09-03T15:27:38.689056","MEAN_MOTION_DOT":"-0.00000535","SEMIMAJOR_AXIS":"6925.356","ARG_OF_PERICENTER":"91.4066","OBJECT_ID":"2020-062W","OBJECT_NAME":"STARLINK-1767","CLASSIFICATION_TYPE":"U","APOAPSIS":"548.183","LAUNCH_DATE":"2020-09-03","MEAN_MOTION":"15.06397467","RA_OF_ASC_NODE":"16.4189","PERIAPSIS":"546.259","PERIOD":"95.592"},{"CENTER_NAME":"EARTH","EPOCH":"2022-09-03T07:38:56.451552","SEMIMAJOR_AXIS":"6841.245","MEAN_MOTION_DOT":"0.00009742","ARG_OF_PERICENTER":"48.1667","TLE_LINE1":"1 46346U 20062X   22246.31870893  .00009742  00000-0  30035-3 0  9994","RCS_SIZE":"LARGE","MEAN_MOTION_DDOT":"0.0000000000000","OBJECT_TYPE":"PAYLOAD","DECAY_DATE":null,"SITE":"AFETR","PERIOD":"93.856","CLASSIFICATION_TYPE":"U","APOAPSIS":"464.136","OBJECT_ID":"2020-062X","OBJECT_NAME":"STARLINK-1546","MEAN_MOTION":"15.34263785","LAUNCH_DATE":"2020-09-03","PERIAPSIS":"462.085","RA_OF_ASC_NODE":"206.1268","FILE":"3556494","BSTAR":"0.00030035000000","TIME_SYSTEM":"UTC","MEAN_ANOMALY":"311.9462","MEAN_ELEMENT_THEORY":"SGP4","REF_FRAME":"TEME","ECCENTRICITY":"0.00014990","TLE_LINE2":"2 46346  53.0529 206.1268 0001499  48.1667 311.9462 15.34263785113307","COUNTRY_CODE":"US","GP_ID":"211633553","EPHEMERIS_TYPE":"0","NORAD_CAT_ID":"46346","ELEMENT_SET_NO":"999","INCLINATION":"53.0529","REV_AT_EPOCH":"11330"},{"OBJECT_TYPE":"PAYLOAD","SITE":"AFETR","DECAY_DATE":null,"MEAN_MOTION_DDOT":"0.0000000000000","TLE_LINE1":"1 46347U 20062Y   22246.53686961 -.00000150  00000-0  88178-5 0  9998","RCS_SIZE":"LARGE","ARG_OF_PERICENTER":"83.5623","SEMIMAJOR_AXIS":"6925.352","MEAN_MOTION_DOT":"-0.00000150","EPOCH":"2022-09-03T12:53:05.534304","CENTER_NAME":"EARTH","RA_OF_ASC_NODE":"331.9165","PERIAPSIS":"546.306","MEAN_MOTION":"15.06398826","LAUNCH_DATE":"2020-09-03","CLASSIFICATION_TYPE":"U","APOAPSIS":"548.129","OBJECT_NAME":"STARLINK-1547","OBJECT_ID":"2020-062Y","PERIOD":"95.592","COUNTRY_CODE":"US","GP_ID":"211639320","TLE_LINE2":"2 46347  53.0570 331.9165 0001316  83.5623 276.5516 15.06398826111713","ECCENTRICITY":"0.00013160","REF_FRAME":"TEME","TIME_SYSTEM":"UTC","MEAN_ANOMALY":"276.5516","MEAN_ELEMENT_THEORY":"SGP4","BSTAR":"0.00000881780000","FILE":"3556551","REV_AT_EPOCH":"11171","ELEMENT_SET_NO":"999","INCLINATION":"53.0570","NORAD_CAT_ID":"46347","EPHEMERIS_TYPE":"0"}];
